CCSDS_OMM_VERS = 2.0
CREATION_DATE  = 
ORIGINATOR     = 

OBJECT_NAME    = UNKNOWN
OBJECT_ID      = 
CENTER_NAME    = EARTH
REF_FRAME      = TEME
TIME_SYSTEM    = UTC
MEAN_ELEMENT_THEORY = SGP/SGP4

EPOCH          = 2026-04-03T16:02:31.048224
MEAN_MOTION    = 14.56729833
ECCENTRICITY   = .0131731
INCLINATION    = 98.7126
RA_OF_ASC_NODE = 161.1306
ARG_OF_PERICENTER = 142.1330
MEAN_ANOMALY   = 9.2597

EPHEMERIS_TYPE = 0
CLASSIFICATION_TYPE = U
NORAD_CAT_ID   = 81311
ELEMENT_SET_NO = 999
REV_AT_EPOCH   = 65588
BSTAR          = .27565E-3
MEAN_MOTION_DOT = .133E-4
MEAN_MOTION_DDOT = 0

CCSDS_OMM_VERS = 2.0
CREATION_DATE  = 
ORIGINATOR     = 

OBJECT_NAME    = UNKNOWN
OBJECT_ID      = 
CENTER_NAME    = EARTH
REF_FRAME      = TEME
TIME_SYSTEM    = UTC
MEAN_ELEMENT_THEORY = SGP/SGP4

EPOCH          = 2026-04-02T07:36:12.002976
MEAN_MOTION    = 13.38060190
ECCENTRICITY   = .0216945
INCLINATION    = 67.1362
RA_OF_ASC_NODE = 293.1367
ARG_OF_PERICENTER = 317.3528
MEAN_ANOMALY   = 225.2187

EPHEMERIS_TYPE = 0
CLASSIFICATION_TYPE = U
NORAD_CAT_ID   = 81317
ELEMENT_SET_NO = 999
REV_AT_EPOCH   = 60342
BSTAR          = .29112E-3
MEAN_MOTION_DOT = .111E-5
MEAN_MOTION_DDOT = 0

CCSDS_OMM_VERS = 2.0
CREATION_DATE  = 
ORIGINATOR     = 

OBJECT_NAME    = UNKNOWN
OBJECT_ID      = 
CENTER_NAME    = EARTH
REF_FRAME      = TEME
TIME_SYSTEM    = UTC
MEAN_ELEMENT_THEORY = SGP/SGP4

EPOCH          = 2026-04-04T08:15:06.514560
MEAN_MOTION    = 14.51174552
ECCENTRICITY   = .0333511
INCLINATION    = 65.7490
RA_OF_ASC_NODE = 72.6591
ARG_OF_PERICENTER = 254.6747
MEAN_ANOMALY   = 101.7274

EPHEMERIS_TYPE = 0
CLASSIFICATION_TYPE = U
NORAD_CAT_ID   = 81323
ELEMENT_SET_NO = 999
REV_AT_EPOCH   = 12937
BSTAR          = .26615E-2
MEAN_MOTION_DOT = .21936E-3
MEAN_MOTION_DDOT = 0

CCSDS_OMM_VERS = 2.0
CREATION_DATE  = 
ORIGINATOR     = 

OBJECT_NAME    = UNKNOWN
OBJECT_ID      = 
CENTER_NAME    = EARTH
REF_FRAME      = TEME
TIME_SYSTEM    = UTC
MEAN_ELEMENT_THEORY = SGP/SGP4

EPOCH          = 2026-03-26T10:42:39.826656
MEAN_MOTION    = 13.22777555
ECCENTRICITY   = .0836355
INCLINATION    = 65.8185
RA_OF_ASC_NODE = 252.8345
ARG_OF_PERICENTER = 343.0357
MEAN_ANOMALY   = 14.4185

EPHEMERIS_TYPE = 0
CLASSIFICATION_TYPE = U
NORAD_CAT_ID   = 81329
ELEMENT_SET_NO = 999
REV_AT_EPOCH   = 59179
BSTAR          = .2944E-3
MEAN_MOTION_DOT = .769E-5
MEAN_MOTION_DDOT = 0

CCSDS_OMM_VERS = 2.0
CREATION_DATE  = 
ORIGINATOR     = 

OBJECT_NAME    = UNKNOWN
OBJECT_ID      = 
CENTER_NAME    = EARTH
REF_FRAME      = TEME
TIME_SYSTEM    = UTC
MEAN_ELEMENT_THEORY = SGP/SGP4

EPOCH          = 2026-04-04T13:24:23.621472
MEAN_MOTION    = 15.05594217
ECCENTRICITY   = .0008602
INCLINATION    = 85.8709
RA_OF_ASC_NODE = 139.0058
ARG_OF_PERICENTER = 192.0705
MEAN_ANOMALY   = 168.0325

EPHEMERIS_TYPE = 0
CLASSIFICATION_TYPE = U
NORAD_CAT_ID   = 81343
ELEMENT_SET_NO = 999
REV_AT_EPOCH   = 47128
BSTAR          = .58308E-3
MEAN_MOTION_DOT = .8442E-4
MEAN_MOTION_DDOT = 0

CCSDS_OMM_VERS = 2.0
CREATION_DATE  = 
ORIGINATOR     = 

OBJECT_NAME    = UNKNOWN
OBJECT_ID      = 
CENTER_NAME    = EARTH
REF_FRAME      = TEME
TIME_SYSTEM    = UTC
MEAN_ELEMENT_THEORY = SGP/SGP4

EPOCH          = 2026-04-04T02:25:13.173024
MEAN_MOTION    = 13.79025033
ECCENTRICITY   = .0121003
INCLINATION    = 66.7972
RA_OF_ASC_NODE = 143.0156
ARG_OF_PERICENTER = 251.1104
MEAN_ANOMALY   = 107.6818

EPHEMERIS_TYPE = 0
CLASSIFICATION_TYPE = U
NORAD_CAT_ID   = 81359
ELEMENT_SET_NO = 999
REV_AT_EPOCH   = 62097
BSTAR          = .80073E-3
MEAN_MOTION_DOT = .79E-5
MEAN_MOTION_DDOT = 0

CCSDS_OMM_VERS = 2.0
CREATION_DATE  = 
ORIGINATOR     = 

OBJECT_NAME    = UNKNOWN
OBJECT_ID      = 
CENTER_NAME    = EARTH
REF_FRAME      = TEME
TIME_SYSTEM    = UTC
MEAN_ELEMENT_THEORY = SGP/SGP4

EPOCH          = 2026-04-03T14:18:05.465376
MEAN_MOTION    = 13.45429449
ECCENTRICITY   = .0714339
INCLINATION    = 65.8818
RA_OF_ASC_NODE = 167.2514
ARG_OF_PERICENTER = 27.1324
MEAN_ANOMALY   = 336.5236

EPHEMERIS_TYPE = 0
CLASSIFICATION_TYPE = U
NORAD_CAT_ID   = 81366
ELEMENT_SET_NO = 999
REV_AT_EPOCH   = 8100
BSTAR          = .46117E-3
MEAN_MOTION_DOT = .1252E-4
MEAN_MOTION_DDOT = 0

CCSDS_OMM_VERS = 2.0
CREATION_DATE  = 
ORIGINATOR     = 

OBJECT_NAME    = UNKNOWN
OBJECT_ID      = 
CENTER_NAME    = EARTH
REF_FRAME      = TEME
TIME_SYSTEM    = UTC
MEAN_ELEMENT_THEORY = SGP/SGP4

EPOCH          = 2026-04-03T06:34:47.997696
MEAN_MOTION    = 14.71361206
ECCENTRICITY   = .0068712
INCLINATION    = 98.8119
RA_OF_ASC_NODE = 203.7252
ARG_OF_PERICENTER = 17.8223
MEAN_ANOMALY   = 342.5368

EPHEMERIS_TYPE = 0
CLASSIFICATION_TYPE = U
NORAD_CAT_ID   = 81371
ELEMENT_SET_NO = 999
REV_AT_EPOCH   = 65823
BSTAR          = .86549E-3
MEAN_MOTION_DOT = .5496E-4
MEAN_MOTION_DDOT = 0

CCSDS_OMM_VERS = 2.0
CREATION_DATE  = 
ORIGINATOR     = 

OBJECT_NAME    = UNKNOWN
OBJECT_ID      = 
CENTER_NAME    = EARTH
REF_FRAME      = TEME
TIME_SYSTEM    = UTC
MEAN_ELEMENT_THEORY = SGP/SGP4

EPOCH          = 2026-04-02T07:37:48.867744
MEAN_MOTION    = 14.37579494
ECCENTRICITY   = .0093765
INCLINATION    = 71.0487
RA_OF_ASC_NODE = 116.3732
ARG_OF_PERICENTER = 269.9224
MEAN_ANOMALY   = 89.1166

EPHEMERIS_TYPE = 0
CLASSIFICATION_TYPE = U
NORAD_CAT_ID   = 81386
ELEMENT_SET_NO = 999
REV_AT_EPOCH   = 64012
BSTAR          = .20792E-2
MEAN_MOTION_DOT = .6519E-4
MEAN_MOTION_DDOT = 0

CCSDS_OMM_VERS = 2.0
CREATION_DATE  = 
ORIGINATOR     = 

OBJECT_NAME    = UNKNOWN
OBJECT_ID      = 
CENTER_NAME    = EARTH
REF_FRAME      = TEME
TIME_SYSTEM    = UTC
MEAN_ELEMENT_THEORY = SGP/SGP4

EPOCH          = 2026-04-01T10:35:01.107456
MEAN_MOTION    = 12.35608531
ECCENTRICITY   = .0175687
INCLINATION    = 103.1051
RA_OF_ASC_NODE = 352.4570
ARG_OF_PERICENTER = 314.0589
MEAN_ANOMALY   = 44.6114

EPHEMERIS_TYPE = 0
CLASSIFICATION_TYPE = U
NORAD_CAT_ID   = 81390
ELEMENT_SET_NO = 999
REV_AT_EPOCH   = 51364
BSTAR          = -.25854E-2
MEAN_MOTION_DOT = -.395E-5
MEAN_MOTION_DDOT = 0

CCSDS_OMM_VERS = 2.0
CREATION_DATE  = 
ORIGINATOR     = 

OBJECT_NAME    = UNKNOWN
OBJECT_ID      = 
CENTER_NAME    = EARTH
REF_FRAME      = TEME
TIME_SYSTEM    = UTC
MEAN_ELEMENT_THEORY = SGP/SGP4

EPOCH          = 2026-04-01T22:38:44.093760
MEAN_MOTION    = 13.82448122
ECCENTRICITY   = .0042343
INCLINATION    = 100.4054
RA_OF_ASC_NODE = 96.4099
ARG_OF_PERICENTER = 111.3174
MEAN_ANOMALY   = 280.4946

EPHEMERIS_TYPE = 0
CLASSIFICATION_TYPE = U
NORAD_CAT_ID   = 81392
ELEMENT_SET_NO = 999
REV_AT_EPOCH   = 61740
BSTAR          = .30058E-2
MEAN_MOTION_DOT = .3225E-4
MEAN_MOTION_DDOT = 0

CCSDS_OMM_VERS = 2.0
CREATION_DATE  = 
ORIGINATOR     = 

OBJECT_NAME    = UNKNOWN
OBJECT_ID      = 
CENTER_NAME    = EARTH
REF_FRAME      = TEME
TIME_SYSTEM    = UTC
MEAN_ELEMENT_THEORY = SGP/SGP4

EPOCH          = 2026-03-14T21:31:57.222912
MEAN_MOTION    = 13.89179281
ECCENTRICITY   = .015752
INCLINATION    = 99.4590
RA_OF_ASC_NODE = 128.5260
ARG_OF_PERICENTER = 337.4444
MEAN_ANOMALY   = 21.9841

EPHEMERIS_TYPE = 0
CLASSIFICATION_TYPE = U
NORAD_CAT_ID   = 81405
ELEMENT_SET_NO = 999
REV_AT_EPOCH   = 57459
BSTAR          = .11126E-2
MEAN_MOTION_DOT = .1447E-4
MEAN_MOTION_DDOT = 0

